0 INMARSAT 3-F4
1 24819U 97027A   13284.74444909 -.00000305  00000-0  10000-3 0  7922
2 24819 003.2570 066.7921 0005070 129.7660 037.9152 01.00267778 59983
0 INMARSAT 3-F4
1 24819U 97027A   13284.74444909 -.00000305  00000-0  10000-3 0  7933
2 24819 003.2570 066.7921 0005070 129.7660 037.9152 01.00267778 59983
0 INMARSAT 3-F4
1 24819U 97027A   13284.74444909 -.00000305  00000-0  10000-3 0  7944
2 24819 003.2570 066.7921 0005070 129.7660 037.9152 01.00267778 59983
0 INMARSAT 3-F4
1 24819U 97027A   13284.74444909 -.00000305  00000-0  10000-3 0  7955
2 24819 003.2570 066.7921 0005070 129.7660 037.9152 01.00267778 59983
0 INMARSAT 3-F4
1 24819U 97027A   13287.39491228 -.00000309  00000-0  10000-3 0  7960
2 24819 003.2632 066.7596 0005394 131.5087 273.0263 01.00273638 60017
0 INMARSAT 3-F4
1 24819U 97027A   13288.35645887 -.00000308  00000-0  10000-3 0  7979
2 24819 003.2653 066.7535 0005088 135.4006 256.2471 01.00273374 60029
0 INMARSAT 3-F4
1 24819U 97027A   13289.35705941 -.00000307  00000-0  10000-3 0  7988
2 24819 003.2673 066.7460 0005074 135.2405 257.6229 01.00273145 60037
0 INMARSAT 3-F4
1 24819U 97027A   13289.35705941 -.00000307  00000-0  10000-3 0  7999
2 24819 003.2673 066.7460 0005074 135.2405 257.6229 01.00273145 60037
0 INMARSAT 3-F4
1 24819U 97027A   13290.35217134 -.00000306  00000-0  10000-3 0  8005
2 24819 003.2693 066.7328 0005328 131.4762 260.6304 01.00272905 60040
0 INMARSAT 3-F4
1 24819U 97027A   13290.38886053 -.00000306  00000-0  10000-3 0  8011
2 24819 003.2695 066.7327 0005208 133.1206 272.2287 01.00272876 60046
0 INMARSAT 3-F4
1 24819U 97027A   13290.38886053 -.00000306  00000-0  10000-3 0  8022
2 24819 003.2695 066.7323 0005221 132.9278 272.4221 01.00272885 60043
0 INMARSAT 3-F4
1 24819U 97027A   13291.84453061 -.00000303  00000-0  10000-3 0  8031
2 24819 003.2730 066.7575 0004950 139.3756 071.4242 01.00272359 60059
0 INMARSAT 3-F4
1 24819U 97027A   13291.84453061 -.00000303  00000-0  10000-3 0  8042
2 24819 003.2730 066.7575 0004950 139.3756 071.4242 01.00272359 60059
0 INMARSAT 3-F4
1 24819U 97027A   13291.84453061 -.00000303  00000-0  10000-3 0  8053
2 24819 003.2730 066.7575 0004950 139.3756 071.4242 01.00272359 60059
0 INMARSAT 3-F4
1 24819U 97027A   13291.84453061 -.00000303  00000-0  10000-3 0  8064
2 24819 003.2730 066.7575 0004950 139.3756 071.4242 01.00272359 60059
0 INMARSAT 3-F4
1 24819U 97027A   13294.33566584 -.00000299  00000-0  10000-3 0  8071
2 24819 003.2774 066.7055 0004928 155.2008 234.9237 01.00272354 60080
0 INMARSAT 3-F4
1 24819U 97027A   13295.45377564 -.00000298  00000-0  10000-3 0  8083
2 24819 003.2798 066.6950 0004970 150.3757 283.3861 01.00272008 60091
0 INMARSAT 3-F4
1 24819U 97027A   13295.45377564 -.00000298  00000-0  10000-3 0  8094
2 24819 003.2798 066.6950 0004970 150.3757 283.3861 01.00272008 60091
0 INMARSAT 3-F4
1 24819U 97027A   13295.45377564 -.00000298  00000-0  10000-3 0  8106
2 24819 003.2798 066.6950 0004970 150.3757 283.3861 01.00272008 60091
0 INMARSAT 3-F4
1 24819U 97027A   13295.45377564 -.00000298  00000-0  10000-3 0  8117
2 24819 003.2798 066.6950 0004970 150.3757 283.3861 01.00272008 60091
